OBJECT_NAME,OBJECT_ID,EPOCH,MEAN_MOTION,ECCENTRICITY,INCLINATION,RA_OF_ASC_NODE,ARG_OF_PERICENTER,MEAN_ANOMALY,EPHEMERIS_TYPE,CLASSIFICATION_TYPE,NORAD_CAT_ID,ELEMENT_SET_NO,REV_AT_EPOCH,BSTAR,MEAN_MOTION_DOT,MEAN_MOTION_DDOT
ZHONGXING-1E,2022-112A,2026-06-13T01:33:45.829728,1.00272654,.00008819,0.0495,236.4048,81.3512,48.4565,0,U,53813,999,1380,0,-.136E-5,0
SES-20,2022-123A,2026-06-13T06:16:46.483104,1.00268844,.0001748,0.0353,73.5570,22.9864,156.1287,0,U,53960,999,1349,0,-.88E-6,0
SES-21,2022-123B,2026-06-13T06:38:26.320128,1.00269846,.0000961,0.0254,32.4584,48.3404,149.3953,0,U,53961,999,717,0,.82E-6,0
GALAXY 33 (G-33),2022-128A,2026-06-13T06:27:10.387872,1.00270679,.00016258,0.0101,324.9138,120.6406,139.8325,0,U,54026,999,1370,0,.91E-6,0
GALAXY 34 (G-34),2022-128B,2026-06-12T22:50:50.755776,1.00272983,.00014255,0.0151,10.9191,95.2882,8.7862,0,U,54027,999,1387,0,.72E-6,0
ANGOSAT 2,2022-131A,2026-06-13T01:17:09.921984,1.00272710,.00010968,0.0338,82.1779,25.4033,196.0924,0,U,54033,999,1343,0,.149E-5,0
EUTELSAT HOTBIRD 13F,2022-134A,2026-06-13T02:56:55.445280,1.00272500,.00020688,0.0466,293.4232,62.4091,322.8520,0,U,54048,999,1333,0,.1E-5,0
LDPE-2,2022-144A,2026-06-13T07:18:32.192928,1.00530394,.00018425,5.6034,63.6824,104.9808,41.4726,0,U,54219,999,1180,0,.139E-5,0
EUTELSAT HOTBIRD 13G,2022-146A,2026-06-13T02:56:55.445280,1.00272040,.00020061,0.0484,228.8740,317.4684,132.3379,0,U,54225,999,742,0,.1E-5,0
ZHONGXING-19,2022-148A,2026-06-13T05:22:22.171872,1.00271211,.00022333,0.0178,326.8140,142.1588,36.3539,0,U,54230,999,1334,0,-.69E-6,0
GALAXY 31 (G-31),2022-153A,2026-06-13T06:14:54.612384,1.00269991,.00009743,0.0184,359.4063,77.8444,157.0443,0,U,54243,999,709,0,0,0
GALAXY 32 (G-32),2022-153B,2026-06-12T11:03:19.128384,1.00271325,.0002028,0.0112,15.0853,18.1712,302.3687,0,U,54244,999,1309,0,-.159E-5,0
EUTELSAT 10B,2022-157A,2026-06-12T21:48:03.556800,1.00267226,.00015617,0.0642,100.4121,14.6254,123.2149,0,U,54259,999,1298,0,.81E-6,0
GALAXY 35 (G-35),2022-170A,2026-06-13T05:52:00.821280,1.00270405,.00017963,0.0023,246.3782,198.3388,171.7482,0,U,54741,999,1285,0,-.15E-5,0
GALAXY 36 (G-36),2022-170B,2026-06-13T05:53:08.213280,1.00271339,.00025063,0.0402,126.0104,316.4756,178.3688,0,U,54742,999,1273,0,-.173E-5,0
METEOSAT-12 (MTG-I1),2022-170C,2026-06-13T06:18:28.087776,1.00271868,.00031669,0.7338,22.2696,72.2391,261.2665,0,U,54743,999,1293,0,.4E-7,0
SHIJIAN-23 (SJ-23),2023-002A,2026-06-12T17:36:29.437920,1.00088656,.0003804,3.7055,78.3671,272.1429,325.7246,0,U,55131,999,1246,0,-.215E-5,0
APSTAR-6E,2023-005A,2026-06-10T15:56:29.693184,1.00270607,.00010438,0.0249,253.3859,305.6629,73.1073,0,U,55239,999,1862,0,-.3E-5,0
USA 342,2023-008A,2026-06-10T06:33:40.001760,1.00272706,.0000235,0.0036,23.3608,273.9776,83.6406,0,U,55263,999,1244,0,0,0
LDPE-3A,2023-008B,2026-06-13T05:52:00.821280,0.99144917,.00010971,2.3371,81.7110,64.2180,110.5979,0,U,55264,999,1177,0,-.7E-7,0
ELEKTRO-L 4,2023-016A,2026-06-12T19:32:14.131680,1.00270500,.00007103,0.0725,170.6663,4.6056,184.7374,0,U,55506,999,1229,0,-.44E-6,0
AMAZONAS NEXUS,2023-017A,2026-06-13T06:01:07.251168,1.00271164,.00049898,0.0370,34.0037,31.0196,225.8361,0,U,55508,999,700,0,-.27E-5,0
ZHONGXING-26,2023-023A,2026-06-12T06:57:00.803232,1.00273412,.00033408,0.0704,72.0144,12.8819,45.0683,0,U,55686,999,1218,0,-.338E-5,0
LUCH-5X (OLYMP-K 2),2023-031A,2026-06-12T16:54:58.821408,1.00273743,.0000649,0.0260,57.9527,171.9697,346.8348,0,U,55841,999,1189,0,.47E-6,0
GAOFEN-13 02,2023-036A,2026-06-13T05:23:38.711040,1.00271282,.00041434,1.0199,0.5875,336.0639,154.1067,0,U,55912,999,1205,0,-.206E-5,0
SES-18,2023-038A,2026-06-13T06:16:46.483104,1.00271067,.00002546,0.0207,292.9238,9.2101,310.5436,0,U,55970,999,1206,0,-.89E-6,0
SES-19,2023-038B,2026-06-13T00:32:05.799840,1.00272725,.00014752,0.0109,333.5368,112.5219,48.4227,0,U,55971,999,1205,0,.101E-5,0
INTELSAT 40E (IS-40E),2023-052A,2026-06-12T12:45:55.936224,1.00271965,.00018202,0.0197,34.9539,92.3118,234.0837,0,U,56174,999,1177,0,-.16E-5,0
VIASAT-3 F1,2023-060A,2026-06-12T21:19:53.527008,1.00269634,.0000831,0.0239,332.5417,92.2317,67.4368,0,U,56370,999,1139,0,0,0
ARCTURUS,2023-060B,2026-06-13T03:07:21.778752,1.00272218,.00024443,2.7655,79.9988,47.0093,253.7663,0,U,56371,999,1141,0,-.52E-6,0
GS-1,2023-060C,2026-06-08T15:31:07.690656,1.00277054,.00041256,2.7050,79.9310,279.9950,219.1575,0,U,56372,999,745,0,-.208E-5,0
BEIDOU-3 G4,2023-066A,2026-06-13T06:58:29.839296,1.00275055,.00042905,0.4916,330.4029,181.8988,353.9188,0,U,56564,999,1135,0,-.268E-5,0
